IRIDIUM 154             
1 43574U 18061F   26182.39461095  .00000112  00000+0  32986-4 0  9990
2 43574  86.3951  50.8656 0002238  89.3567 270.7885 14.34218458415445
IRIDIUM 163             
1 43575U 18061G   26182.37558416  .00000054  00000+0  12046-4 0  9993
2 43575  86.3946  50.7883 0002182  84.3491 275.7953 14.34217869415413
IRIDIUM 156             
1 43576U 18061H   26182.62928716  .00000171  00000+0  54079-4 0  9998
2 43576  86.3944  50.6893 0001965  87.1888 272.9533 14.34220092415449
IRIDIUM 164             
1 43577U 18061J   26182.61026018  .00000000  00000+0 -70130-5 0  9991
2 43577  86.3946  50.7377 0002134  89.7297 270.4143 14.34217500415485
IRIDIUM 159             
1 43578U 18061K   26182.64831598  .00000038  00000+0  65754-5 0  9998
2 43578  86.3946  50.6584 0002225  84.8999 275.2451 14.34217751415451
IRIDIUM 180             
1 43922U 19002A   26182.50827481 -.00000002  00000+0 -76103-5 0  9991
2 43922  86.3974 347.6100 0002126  89.5790 270.5649 14.34217475391047
IRIDIUM 176             
1 43923U 19002B   26182.50019250  .00000808  00000+0  12431-3 0  9993
2 43923  86.6098 347.5545 0002385  88.1122 272.0368 14.72233369401354
IRIDIUM 168             
1 43924U 19002C   26182.50192749  .00000173  00000+0  54890-4 0  9990
2 43924  86.3981 347.6901 0002233  90.0648 270.0803 14.34218329391028
IRIDIUM 173             
1 43925U 19002D   26182.48924716 -.00000014  00000+0 -11906-4 0  9992
2 43925  86.3974 347.5840 0002037  89.2674 270.8756 14.34217370391001
IRIDIUM 169             
1 43926U 19002E   26182.51117272  .00000299  00000+0  91301-4 0  9998
2 43926  86.4217  19.2033 0001638  88.0460 272.0926 14.38610253392281
IRIDIUM 172             
1 43927U 19002F   26182.48290465  .00000045  00000+0  90273-5 0  9998
2 43927  86.3977 347.5943 0002219  89.4150 270.7300 14.34217344391019
IRIDIUM 175             
1 43928U 19002G   26182.27741798  .00000361  00000+0  10055-3 0  9995
2 43928  86.4518 284.6312 0004217 143.7587 216.3900 14.43620684401010
IRIDIUM 171             
1 43929U 19002H   26182.46387680  .00000005  00000+0 -54241-5 0  9996
2 43929  86.3982 347.9101 0002030  94.2511 265.8916 14.34217439391005
IRIDIUM 170             
1 43930U 19002J   26182.50636774  .00000806  00000+0  12401-3 0  9992
2 43930  86.6096 347.5542 0002440  84.8149 275.3347 14.72233888401361
IRIDIUM 167             
1 43931U 19002K   26182.45753337  .00000053  00000+0  11758-4 0  9991
2 43931  86.3977 347.6274 0002051  98.1331 262.0097 14.34217972391007
IRIDIUM 181             
1 56726U 23068S   26182.38830536  .00000343  00000+0  95932-4 0  9991
2 56726  86.4485  50.8532 0002442  86.5349 273.6131 14.43313877164480
IRIDIUM 177             
1 56727U 23068T   26182.45199428  .00001202  00000+0  15542-3 0  9991
2 56727  86.1975 322.0168 0002326  89.4458 270.7029 14.80044914168476
IRIDIUM 174             
1 56728U 23068U   26182.49400244  .00000845  00000+0  13021-3 0  9999
2 56728  86.6106 347.7082 0002275  80.1636 279.9838 14.72241814168126
IRIDIUM 178             
1 56729U 23068V   26182.50856821  .00001056  00000+0  13620-3 0  9998
2 56729  86.6532  19.3739 0002497  85.4880 274.6627 14.80045664168487
IRIDIUM 179             
1 56730U 23068W   26182.50327739  .00001030  00000+0  13264-3 0  9997
2 56730  86.6765  28.3984 0002436  87.8334 272.3166 14.80062931168481
