OBJECT_NAME,OBJECT_ID,EPOCH,MEAN_MOTION,ECCENTRICITY,INCLINATION,RA_OF_ASC_NODE,ARG_OF_PERICENTER,MEAN_ANOMALY,EPHEMERIS_TYPE,CLASSIFICATION_TYPE,NORAD_CAT_ID,ELEMENT_SET_NO,REV_AT_EPOCH,BSTAR,MEAN_MOTION_DOT,MEAN_MOTION_DDOT
IRIDIUM 154,2018-061F,2026-07-01T09:28:14.386080,14.34218458,.0002238,86.3951,50.8656,89.3567,270.7885,0,U,43574,999,41544,.32986367E-4,.112E-5,0
IRIDIUM 163,2018-061G,2026-07-01T09:00:50.471424,14.34217869,.00021821,86.3946,50.7883,84.3491,275.7953,0,U,43575,999,41541,.12045889E-4,.54E-6,0
IRIDIUM 156,2018-061H,2026-07-01T15:06:10.410624,14.34220092,.00019653,86.3944,50.6893,87.1888,272.9533,0,U,43576,999,41544,.54078561E-4,.171E-5,0
IRIDIUM 164,2018-061J,2026-07-01T14:38:46.479552,14.34217500,.00021349,86.3946,50.7377,89.7297,270.4143,0,U,43577,999,41548,-.7013016E-5,0,0
IRIDIUM 159,2018-061K,2026-07-01T15:33:34.500672,14.34217751,.00022255,86.3946,50.6584,84.8999,275.2451,0,U,43578,999,41545,.657539E-5,.38E-6,0
IRIDIUM 180,2019-002A,2026-07-01T12:11:54.943584,14.34217475,.00021263,86.3974,347.6100,89.5790,270.5649,0,U,43922,999,39104,-.7610255E-5,-.2E-7,0
IRIDIUM 176,2019-002B,2026-07-01T12:00:16.632000,14.72233369,.00023859,86.6098,347.5545,88.1122,272.0368,0,U,43923,999,40135,.12430584E-3,.808E-5,0
IRIDIUM 168,2019-002C,2026-07-01T12:02:46.535136,14.34218329,.00022333,86.3981,347.6901,90.0648,270.0803,0,U,43924,999,39102,.5488972E-4,.173E-5,0
IRIDIUM 173,2019-002D,2026-07-01T11:44:30.954624,14.34217370,.00020375,86.3974,347.5840,89.2674,270.8756,0,U,43925,999,39100,-.11905644E-4,-.14E-6,0
IRIDIUM 169,2019-002E,2026-07-01T12:16:05.323008,14.38610253,.00016381,86.4217,19.2033,88.0460,272.0926,0,U,43926,999,39228,.91301267E-4,.299E-5,0
IRIDIUM 172,2019-002F,2026-07-01T11:35:22.961760,14.34217344,.0002219,86.3977,347.5943,89.4150,270.7300,0,U,43927,999,39101,.9027324E-5,.45E-6,0
IRIDIUM 175,2019-002G,2026-07-01T06:39:28.913472,14.43620684,.00042176,86.4518,284.6312,143.7587,216.3900,0,U,43928,999,40101,.10055291E-3,.361E-5,0
IRIDIUM 171,2019-002H,2026-07-01T11:07:58.955520,14.34217439,.00020303,86.3982,347.9101,94.2511,265.8916,0,U,43929,999,39100,-.5424146E-5,.5E-7,0
IRIDIUM 170,2019-002J,2026-07-01T12:09:10.172736,14.72233888,.00024402,86.6096,347.5542,84.8149,275.3347,0,U,43930,999,40136,.12401373E-3,.806E-5,0
IRIDIUM 167,2019-002K,2026-07-01T10:58:50.883168,14.34217972,.00020515,86.3977,347.6274,98.1331,262.0097,0,U,43931,999,39100,.11758015E-4,.53E-6,0
IRIDIUM 181,2023-068S,2026-07-01T09:19:09.583104,14.43313877,.00024424,86.4485,50.8532,86.5349,273.6131,0,U,56726,999,16448,.95931633E-4,.343E-5,0
IRIDIUM 177,2023-068T,2026-07-01T10:50:52.305792,14.80044914,.00023261,86.1975,322.0168,89.4458,270.7029,0,U,56727,999,16847,.15541754E-3,.1202E-4,0
IRIDIUM 174,2023-068U,2026-07-01T11:51:21.810816,14.72241814,.00022752,86.6106,347.7082,80.1636,279.9838,0,U,56728,999,16812,.13020909E-3,.845E-5,0
IRIDIUM 178,2023-068V,2026-07-01T12:12:20.293344,14.80045664,.00024976,86.6532,19.3739,85.4880,274.6627,0,U,56729,999,16848,.13620314E-3,.1056E-4,0
IRIDIUM 179,2023-068W,2026-07-01T12:04:43.166496,14.80062931,.00024364,86.6765,28.3984,87.8334,272.3166,0,U,56730,999,16848,.13263833E-3,.103E-4,0
